start=new Date('2022-08-16T00:00:00.000Z').valueOf();
sats=[{"PERIAPSIS":"546.274","OBJECT_NAME":"STARLINK-1665","ECCENTRICITY":"0.00013780","MEAN_MOTION":"15.06395231","EPOCH":"2022-08-15T18:58:29.397792","MEAN_MOTION_DOT":"0.00002660","COUNTRY_CODE":"US","APOAPSIS":"548.182","TLE_LINE2":"2 46356  53.0566 101.0656 0001378  87.3931 272.7216 15.06395231108089","NORAD_CAT_ID":"46356","RCS_SIZE":"LARGE","INCLINATION":"53.0566","FILE":"3537378","REF_FRAME":"TEME","ELEMENT_SET_NO":"999","TIME_SYSTEM":"UTC","RA_OF_ASC_NODE":"101.0656","PERIOD":"95.592","ARG_OF_PERICENTER":"87.3931","CLASSIFICATION_TYPE":"U","GP_ID":"210297011","MEAN_ELEMENT_THEORY":"SGP4","OBJECT_ID":"2020-062AH","SEMIMAJOR_AXIS":"6925.363","OBJECT_TYPE":"PAYLOAD","BSTAR":"0.00019744000000","DECAY_DATE":null,"MEAN_MOTION_DDOT":"0.0000000000000","CENTER_NAME":"EARTH","LAUNCH_DATE":"2020-09-03","SITE":"AFETR","MEAN_ANOMALY":"272.7216","EPHEMERIS_TYPE":"0","REV_AT_EPOCH":"10808","TLE_LINE1":"1 46356U 20062AH  22227.79061803  .00002660  00000-0  19744-3 0  9995"},{"TLE_LINE1":"1 46357U 20062AJ  22227.72337418  .00002846  00000-0  20988-3 0  9995","EPHEMERIS_TYPE":"0","REV_AT_EPOCH":"10835","MEAN_ANOMALY":"282.7886","DECAY_DATE":null,"MEAN_MOTION_DDOT":"0.0000000000000","LAUNCH_DATE":"2020-09-03","CENTER_NAME":"EARTH","SITE":"AFETR","BSTAR":"0.00020988000000","OBJECT_TYPE":"PAYLOAD","SEMIMAJOR_AXIS":"6925.345","CLASSIFICATION_TYPE":"U","GP_ID":"210296754","MEAN_ELEMENT_THEORY":"SGP4","OBJECT_ID":"2020-062AJ","RA_OF_ASC_NODE":"81.3656","PERIOD":"95.592","ARG_OF_PERICENTER":"77.3264","ELEMENT_SET_NO":"999","TIME_SYSTEM":"UTC","REF_FRAME":"TEME","FILE":"3537378","NORAD_CAT_ID":"46357","RCS_SIZE":"LARGE","INCLINATION":"53.0550","APOAPSIS":"548.207","TLE_LINE2":"2 46357  53.0550  81.3656 0001440  77.3264 282.7886 15.06401294108352","MEAN_MOTION_DOT":"0.00002846","COUNTRY_CODE":"US","MEAN_MOTION":"15.06401294","EPOCH":"2022-08-15T17:21:39.529152","PERIAPSIS":"546.212","OBJECT_NAME":"STARLINK-1666","ECCENTRICITY":"0.00014400"},{"MEAN_ANOMALY":"275.0057","SITE":"AFETR","LAUNCH_DATE":"2020-09-03","CENTER_NAME":"EARTH","MEAN_MOTION_DDOT":"0.0000000000000","DECAY_DATE":null,"TLE_LINE1":"1 46358U 20062AK  22227.76944646  .00000158  00000-0  29522-4 0  9995","REV_AT_EPOCH":"10808","EPHEMERIS_TYPE":"0","ARG_OF_PERICENTER":"85.1135","PERIOD":"95.592","RA_OF_ASC_NODE":"101.1666","TIME_SYSTEM":"UTC","ELEMENT_SET_NO":"999","SEMIMAJOR_AXIS":"6925.364","OBJECT_TYPE":"PAYLOAD","BSTAR":"0.00002952200000","OBJECT_ID":"2020-062AK","GP_ID":"210296010","MEAN_ELEMENT_THEORY":"SGP4","CLASSIFICATION_TYPE":"U","INCLINATION":"53.0553","RCS_SIZE":"LARGE","NORAD_CAT_ID":"46358","REF_FRAME":"TEME","FILE":"3537378","EPOCH":"2022-08-15T18:28:00.174144","MEAN_MOTION":"15.06394829","ECCENTRICITY":"0.00017730","OBJECT_NAME":"STARLINK-1690","PERIAPSIS":"546.002","TLE_LINE2":"2 46358  53.0553 101.1666 0001773  85.1135 275.0057 15.06394829108081","APOAPSIS":"548.457","COUNTRY_CODE":"US","MEAN_MOTION_DOT":"0.00000158"},{"NORAD_CAT_ID":"46359","RCS_SIZE":"LARGE","INCLINATION":"53.0552","REF_FRAME":"TEME","FILE":"3537378","MEAN_MOTION":"15.06405097","EPOCH":"2022-08-15T19:35:00.765312","PERIAPSIS":"546.086","OBJECT_NAME":"STARLINK-1707","ECCENTRICITY":"0.00016050","APOAPSIS":"548.309","TLE_LINE2":"2 46359  53.0552  55.9718 0001605  73.2639 286.8525 15.06405097108716","MEAN_MOTION_DOT":"0.00002545","COUNTRY_CODE":"US","MEAN_ANOMALY":"286.8525","DECAY_DATE":null,"MEAN_MOTION_DDOT":"0.0000000000000","CENTER_NAME":"EARTH","LAUNCH_DATE":"2020-09-03","SITE":"AFETR","TLE_LINE1":"1 46359U 20062AL  22227.81598108  .00002545  00000-0  18968-3 0  9993","EPHEMERIS_TYPE":"0","REV_AT_EPOCH":"10871","RA_OF_ASC_NODE":"55.9718","PERIOD":"95.592","ARG_OF_PERICENTER":"73.2639","ELEMENT_SET_NO":"999","TIME_SYSTEM":"UTC","OBJECT_TYPE":"PAYLOAD","SEMIMAJOR_AXIS":"6925.333","BSTAR":"0.00018968000000","CLASSIFICATION_TYPE":"U","MEAN_ELEMENT_THEORY":"SGP4","GP_ID":"210296260","OBJECT_ID":"2020-062AL"},{"REV_AT_EPOCH":"10871","EPHEMERIS_TYPE":"0","TLE_LINE1":"1 46360U 20062AM  22227.77175897  .00006511  00000-0  45557-3 0  9997","LAUNCH_DATE":"2020-09-03","CENTER_NAME":"EARTH","SITE":"AFETR","DECAY_DATE":null,"MEAN_MOTION_DDOT":"0.0000000000000","MEAN_ANOMALY":"285.7712","GP_ID":"210296512","MEAN_ELEMENT_THEORY":"SGP4","OBJECT_ID":"2020-062AM","CLASSIFICATION_TYPE":"U","OBJECT_TYPE":"PAYLOAD","SEMIMAJOR_AXIS":"6925.337","BSTAR":"0.00045557000000","TIME_SYSTEM":"UTC","ELEMENT_SET_NO":"999","PERIOD":"95.592","ARG_OF_PERICENTER":"74.3440","RA_OF_ASC_NODE":"56.1658","FILE":"3537378","REF_FRAME":"TEME","INCLINATION":"53.0546","NORAD_CAT_ID":"46360","RCS_SIZE":"LARGE","MEAN_MOTION_DOT":"0.00006511","COUNTRY_CODE":"US","APOAPSIS":"548.229","TLE_LINE2":"2 46360  53.0546  56.1658 0001483  74.3440 285.7712 15.06403766108710","OBJECT_NAME":"STARLINK-1713","ECCENTRICITY":"0.00014830","PERIAPSIS":"546.175","MEAN_MOTION":"15.06403766","EPOCH":"2022-08-15T18:31:19.975008"},{"MEAN_ANOMALY":"264.7746","SITE":"AFETR","LAUNCH_DATE":"2020-09-03","CENTER_NAME":"EARTH","MEAN_MOTION_DDOT":"0.0000000000000","DECAY_DATE":null,"TLE_LINE1":"1 46361U 20062AN  22227.80766996  .00002428  00000-0  18184-3 0  9997","REV_AT_EPOCH":"10871","EPHEMERIS_TYPE":"0","ARG_OF_PERICENTER":"95.3384","PERIOD":"95.592","RA_OF_ASC_NODE":"55.9763","TIME_SYSTEM":"UTC","ELEMENT_SET_NO":"999","BSTAR":"0.00018184000000","OBJECT_TYPE":"PAYLOAD","SEMIMAJOR_AXIS":"6925.356","OBJECT_ID":"2020-062AN","GP_ID":"210297254","MEAN_ELEMENT_THEORY":"SGP4","CLASSIFICATION_TYPE":"U","INCLINATION":"53.0535","RCS_SIZE":"LARGE","NORAD_CAT_ID":"46361","REF_FRAME":"TEME","FILE":"3537378","EPOCH":"2022-08-15T19:23:02.684544","MEAN_MOTION":"15.06397702","ECCENTRICITY":"0.00012290","OBJECT_NAME":"STARLINK-1722","PERIAPSIS":"546.369","TLE_LINE2":"2 46361  53.0535  55.9763 0001229  95.3384 264.7746 15.06397702108717","APOAPSIS":"548.072","COUNTRY_CODE":"US","MEAN_MOTION_DOT":"0.00002428"},{"TLE_LINE2":"2 46362  53.0554  56.0958 0001495  82.4476 277.6683 15.06396735108719","APOAPSIS":"548.259","COUNTRY_CODE":"US","MEAN_MOTION_DOT":"0.00000706","MEAN_MOTION":"15.06396735","EPOCH":"2022-08-15T18:52:33.002112","ECCENTRICITY":"0.00014950","OBJECT_NAME":"STARLINK-1726","PERIAPSIS":"546.188","REF_FRAME":"TEME","FILE":"3537378","INCLINATION":"53.0554","RCS_SIZE":"LARGE","NORAD_CAT_ID":"46362","SEMIMAJOR_AXIS":"6925.359","OBJECT_TYPE":"PAYLOAD","BSTAR":"0.00006630500000","OBJECT_ID":"2020-062AP","GP_ID":"210295512","MEAN_ELEMENT_THEORY":"SGP4","CLASSIFICATION_TYPE":"U","ARG_OF_PERICENTER":"82.4476","PERIOD":"95.592","RA_OF_ASC_NODE":"56.0958","TIME_SYSTEM":"UTC","ELEMENT_SET_NO":"999","TLE_LINE1":"1 46362U 20062AP  22227.78649308  .00000706  00000-0  66305-4 0  9998","REV_AT_EPOCH":"10871","EPHEMERIS_TYPE":"0","MEAN_ANOMALY":"277.6683","SITE":"AFETR","CENTER_NAME":"EARTH","LAUNCH_DATE":"2020-09-03","MEAN_MOTION_DDOT":"0.0000000000000","DECAY_DATE":null},{"MEAN_MOTION_DOT":"0.00000867","COUNTRY_CODE":"US","APOAPSIS":"548.215","TLE_LINE2":"2 46363  53.0541  56.6992 0001429  88.7707 271.3446 15.06396183108695","PERIAPSIS":"546.236","OBJECT_NAME":"STARLINK-1739","ECCENTRICITY":"0.00014290","EPOCH":"2022-08-15T15:29:30.396480","MEAN_MOTION":"15.06396183","FILE":"3537378","REF_FRAME":"TEME","NORAD_CAT_ID":"46363","RCS_SIZE":"LARGE","INCLINATION":"53.0541","CLASSIFICATION_TYPE":"U","MEAN_ELEMENT_THEORY":"SGP4","GP_ID":"210295762","OBJECT_ID":"2020-062AQ","OBJECT_TYPE":"PAYLOAD","SEMIMAJOR_AXIS":"6925.360","BSTAR":"0.00007710300000","ELEMENT_SET_NO":"999","TIME_SYSTEM":"UTC","RA_OF_ASC_NODE":"56.6992","PERIOD":"95.592","ARG_OF_PERICENTER":"88.7707","EPHEMERIS_TYPE":"0","REV_AT_EPOCH":"10869","TLE_LINE1":"1 46363U 20062AQ  22227.64549070  .00000867  00000-0  77103-4 0  9995","DECAY_DATE":null,"MEAN_MOTION_DDOT":"0.0000000000000","LAUNCH_DATE":"2020-09-03","CENTER_NAME":"EARTH","SITE":"AFETR","MEAN_ANOMALY":"271.3446"},{"TLE_LINE1":"1 46364U 20062AR  22227.84738528 -.00000705  00000-0 -28451-4 0  9991","EPHEMERIS_TYPE":"0","REV_AT_EPOCH":"10899","MEAN_ANOMALY":"230.8553","DECAY_DATE":null,"MEAN_MOTION_DDOT":"0.0000000000000","CENTER_NAME":"EARTH","LAUNCH_DATE":"2020-09-03","SITE":"AFETR","BSTAR":"-0.00002845100000","OBJECT_TYPE":"PAYLOAD","SEMIMAJOR_AXIS":"6925.377","CLASSIFICATION_TYPE":"U","MEAN_ELEMENT_THEORY":"SGP4","GP_ID":"210297012","OBJECT_ID":"2020-062AR","RA_OF_ASC_NODE":"36.3087","PERIOD":"95.593","ARG_OF_PERICENTER":"129.2577","ELEMENT_SET_NO":"999","TIME_SYSTEM":"UTC","REF_FRAME":"TEME","FILE":"3537378","NORAD_CAT_ID":"46364","RCS_SIZE":"LARGE","INCLINATION":"53.0558","APOAPSIS":"548.342","TLE_LINE2":"2 46364  53.0558  36.3087 0001588 129.2577 230.8553 15.06390769108992","MEAN_MOTION_DOT":"-0.00000705","COUNTRY_CODE":"US","MEAN_MOTION":"15.06390769","EPOCH":"2022-08-15T20:20:14.088192","PERIAPSIS":"546.142","OBJECT_NAME":"STARLINK-1763","ECCENTRICITY":"0.00015880"},{"INCLINATION":"53.0546","NORAD_CAT_ID":"46365","RCS_SIZE":"LARGE","REF_FRAME":"TEME","FILE":"3537378","EPOCH":"2022-08-15T19:45:37.969632","MEAN_MOTION":"15.06404719","OBJECT_NAME":"STARLINK-1550","ECCENTRICITY":"0.00013220","PERIAPSIS":"546.284","APOAPSIS":"548.115","TLE_LINE2":"2 46365  53.0546  55.9188 0001322  86.2830 273.8310 15.06404719108718","MEAN_MOTION_DOT":"0.00003125","COUNTRY_CODE":"US","MEAN_ANOMALY":"273.8310","CENTER_NAME":"EARTH","LAUNCH_DATE":"2020-09-03","SITE":"AFETR","DECAY_DATE":null,"MEAN_MOTION_DDOT":"0.0000000000000","TLE_LINE1":"1 46365U 20062AS  22227.82335613  .00003125  00000-0  22858-3 0  9999","REV_AT_EPOCH":"10871","EPHEMERIS_TYPE":"0","PERIOD":"95.592","ARG_OF_PERICENTER":"86.2830","RA_OF_ASC_NODE":"55.9188","TIME_SYSTEM":"UTC","ELEMENT_SET_NO":"999","OBJECT_TYPE":"PAYLOAD","SEMIMAJOR_AXIS":"6925.334","BSTAR":"0.00022858000000","GP_ID":"210296755","MEAN_ELEMENT_THEORY":"SGP4","OBJECT_ID":"2020-062AS","CLASSIFICATION_TYPE":"U"}];
